# Made by eph2tle, compiled Sep 13 2021 13:38:38
# Run at Mon Sep 13 14:19:46 2021
#
#    The following TLEs (Two-Line Elements) were generated by fitting
# a numerically-integrated ephemeris,  based on the orbit given below,
# to the SDP4/SGP4 models.  Each TLE is good for the interval between
# its epoch and the epoch of the subsequent TLE (usually one day).
# The maximum deviation between the numerically integrated ephemerides
# and the TLE-based ephemeris, in kilometers,  is given for each TLE
# as the "worst residual".
#
#    This fitting is done using the 'eph2tle' code packaged with Find_Orb.
# The code has details on how the TLEs were computed :
#
#    https://github.com/Bill-Gray/find_orb/eph2tle.cpp
#
#    Be warned:  the error given is that between the numerically
# integrated ephems and the TLE model.  There will usually be at
# least some additional difference between the ephems and the actual
# motion of the satellite,  especially if the ephemerides are based
# on a short arc.  If the following orbital elements say something
# like "[based on] 10 observations 2015 Jan. 1-13",  and the TLEs
# are for 2015 May,  the extrapolation may be tenuous at best.  If
# your application requires a specific level of accuracy,  you may
# want to contact me;  I can give you some idea as to the fit of the
# underlying data (and possibly TLEs based on newer data).
#
#   You can usually find the underlying observational data,  and the
# fitted orbit,  residuals,  ephemerides,  and sometimes some comments
# about the object,  among the pages listed at
#
#    https://www.projectpluto.com/pluto/mpecs/pseudo.htm
#
#    WARNING:  for this object,  "normal" TLEs cannot be fitted.  (This
# usually means an object with an hyperbolic or nearly-parabolic orbit.)
# For this and similar cases,   an alternative model is used,  in which
# most of the traditional TLE data is replaced by six signed 8-digit hex
# numbers.  These six numbers are a state vector,  numerically integrated
# using a simplified force model.  This is necessary for objects at L2 or
# L1,  and sometimes for objects in high orbits where the SDP4/SGP4 model
# fails.  I'll be posting source code for this.  But be aware:  it's my
# own extension,  doesn't work with other code,  and is therefore used
# only when necessary.
#
#    Also,  if you use a TLE outside the "correct" time range (between
# its MJD and that of the next TLE),  all bets are off.  I've carefully
# computed and minimized the worst error over the "correct" time frame,
# but the ephemeris may (or may not) diverge wildly outside of it.
#
# Ephem range: 59468.000000 59498.000000 1.000000
# Created Mon Sep 13 14:19:40 2021
# Ephemeris start: 11 Sep 2021  0:00:00
# Ephemeris end:   11 Oct 2021  0:00:00
# Times are all TDT
# Positions/velocities are in ecliptic J2000
# Orbital elements:  Unk_Cislunar
#    Perilune 2021 Sep 12.21806 +/- 0.00784 TT =  5:14:00 (JD 2459469.71806)
# Epoch 2021 Sep 11.0 TT = JDT 2459468.5                        Find_Orb
# q 15493.8164 +/- 230                (J2000 ecliptic)
# H   20.3  G 0.15                    Peri.   86.02469 +/- 0.47
#                                     Node   199.50922 +/- 0.49
# e   1.0465467 +/- 0.000986          Incl.   55.23840 +/- 0.17
# 15 of 87 observations 2021 June 5-Sept. 11; mean residual 174".602
#
# 1 NoradU COSPAR   Epoch.epoch     dn/dt/2  d2n/dt2/6 BSTAR    T El# C
# 2 NoradU Inclina RAAscNode Eccent  ArgPeri MeanAno  MeanMotion Rev# C

# Worst residual: 282.39 km
# MJD 59468.000000 (2021 Sep 11  0:00)
Unk_Cislunar
1 99999U 00000    21253.99919926 -005FJFOX -003NIPR5 -001OWP1AH 13522
2 99999                          +0005VPNZ -0005M5UF -0000YKR7     01

# Worst residual: 2386.18 km
# MJD 59469.000000 (2021 Sep 12  0:00)
Unk_Cislunar
1 99999U 00000    21254.99919926 -003PZMQ9 -004VBLEM -001U5EZBH 13520
2 99999                          +0008VZS7 -0003VGDP -0000D3HV     00

# Worst residual: 173.70 km
# MJD 59470.000000 (2021 Sep 13  0:00)
Unk_Cislunar
1 99999U 00000    21255.99919926 -001LHL3M -00546GMJ -00268TJPH 13524
2 99999                          +0007USEM +0000FZHG -0001XUOT     06

# Worst residual: 38.12 km
# MJD 59471.000000 (2021 Sep 14  0:00)
Unk_Cislunar
1 99999U 00000    21256.99919926 +0006TN6W -004V78F1 -002KM09LH 13522
2 99999                          +00075J1R +0001O4EI -0001ACIW     07

# Worst residual: 11.66 km
# MJD 59472.000000 (2021 Sep 15  0:00)
Unk_Cislunar
1 99999U 00000    21257.99919926 +001U3NQX -004AWIWG -002RQ3QEH 13523
2 99999                          +0006IIPA +00030WLE -0000C8F6     01

# Worst residual: 5.22 km
# MJD 59473.000000 (2021 Sep 16  0:00)
Unk_Cislunar
1 99999U 00000    21258.99919926 +003A9LBU -003FEE82 -002QE8HOH 13526
2 99999                          +0005HU4T +00047XZY +0000N299     07

# Worst residual: 3.08 km
# MJD 59474.000000 (2021 Sep 17  0:00)
Unk_Cislunar
1 99999U 00000    21259.99919926 +004G36F7 -002AZK3Q -002GXSWNH 13529
2 99999                          +0004525V +00052EST +0001IVBR     01

# Worst residual: 1.83 km
# MJD 59475.000000 (2021 Sep 18  0:00)
Unk_Cislunar
1 99999U 00000    21260.99919926 +00599FCT -00111UJT -0020KEO8H 13520
2 99999                          +0002LCQ1 +0005HUXZ +00028D6Y     01

# Worst residual: 3.27 km
# MJD 59476.000000 (2021 Sep 19  0:00)
Unk_Cislunar
1 99999U 00000    21261.99919926 +005OR9PS +000AT8SG -001EYXIQH 13527
2 99999                          +0000ZUGZ +0005IOXC +0002QB1E     05

# Worst residual: 3.90 km
# MJD 59477.000000 (2021 Sep 20  0:00)
Unk_Cislunar
1 99999U 00000    21262.99919926 +005QN4N4 +001LAK6W -000PZZ1OH 13526
2 99999                          -0000JIWR +00056OQF +00030INX     02

# Worst residual: 3.66 km
# MJD 59478.000000 (2021 Sep 21  0:00)
Unk_Cislunar
1 99999U 00000    21263.99919926 +005FRSJE +002RKG38 +0000J39QH 13525
2 99999                          -0001Y3EK +0004JZUH +00033DPR     02

# Worst residual: 2.82 km
# MJD 59479.000000 (2021 Sep 22  0:00)
Unk_Cislunar
1 99999U 00000    21264.99919926 +004TIQUR +003RBH47 +000QX4QBH 13528
2 99999                          -000364UO +0003OMSS +0002ZG68     00

# Worst residual: 2.40 km
# MJD 59480.000000 (2021 Sep 23  0:00)
Unk_Cislunar
1 99999U 00000    21265.99919926 +003XLR28 +004IOB0Z +001FLQWPH 13525
2 99999                          -00046GV8 +0002MAPA +0002P8KU     08

# Worst residual: 2.66 km
# MJD 59481.000000 (2021 Sep 24  0:00)
Unk_Cislunar
1 99999U 00000    21266.99919926 +002TZLRY +00504TVP +00214F79H 13522
2 99999                          -0004Y4QX +0001ECWW +000294E5     07

# Worst residual: 2.76 km
# MJD 59482.000000 (2021 Sep 25  0:00)
Unk_Cislunar
1 99999U 00000    21267.99919926 +001KVKJA +0056HJTQ +002I33Y2H 13521
2 99999                          -0005G2S0 +00001WWK +0001NAMA     07

# Worst residual: 2.53 km
# MJD 59483.000000 (2021 Sep 26  0:00)
Unk_Cislunar
1 99999U 00000    21268.99919926 +0008RLG5 +0050RKFN +002T4MIIH 13524
2 99999                          -0005MSXP -0001E49Q +0000VRGD     08

# Worst residual: 2.40 km
# MJD 59484.000000 (2021 Sep 27  0:00)
Unk_Cislunar
1 99999U 00000    21269.99919926 -0013DHIH +004I835I +002WV4OYH 13522
2 99999                          -0005FSG2 -0002WP2S -00001M44     00

# Worst residual: 2.05 km
# MJD 59485.000000 (2021 Sep 28  0:00)
Unk_Cislunar
1 99999U 00000    21270.99919926 -002BS0XX +003MGNNY +002RVRK1H 13522
2 99999                          -0004QRLM -0004FSKH -00014UPN     03

# Worst residual: 1.27 km
# MJD 59486.000000 (2021 Sep 29  0:00)
Unk_Cislunar
1 99999U 00000    21271.99919926 -003BDY9K +002DUUFB +002CUVDPH 13521
2 99999                          -0003D8XP -0005UIW2 -0002CYOP     00

# Worst residual: 0.71 km
# MJD 59487.000000 (2021 Sep 30  0:00)
Unk_Cislunar
1 99999U 00000    21272.99919926 -003VEO10 +000UM8MC +001N123KH 13525
2 99999                          -00013R0M -0006TTIL -0003LPKC     03

# Worst residual: 0.46 km
# MJD 59488.000000 (2021 Oct  1  0:00)
Unk_Cislunar
1 99999U 00000    21273.99919926 -003RQH5L -000T9PB9 +000NFTBLH 13524
2 99999                          +000234D4 -0006T1QO -0004JK86     07

# Worst residual: 0.38 km
# MJD 59489.000000 (2021 Oct  2  0:00)
Unk_Cislunar
1 99999U 00000    21274.99919926 -002UC7A8 -002A61LU -000GZIFMH 13526
2 99999                          +0005LB9H -00054QOS -0004ME1Z     07

# Worst residual: 0.29 km
# MJD 59490.000000 (2021 Oct  3  0:00)
Unk_Cislunar
1 99999U 00000    21275.99919926 -0016EUZA -0035DZ2T -001GT5GUH 13524
2 99999                          +0007YP5Q -0001XC0C -0003H85L     08

# Worst residual: 0.27 km
# MJD 59491.000000 (2021 Oct  4  0:00)
Unk_Cislunar
1 99999U 00000    21276.99919926 +000SYEIT -0036VG7I -0022VLDJH 13521
2 99999                          +00087BL8 +0001HKYF -0001KTNR     03

# Worst residual: 0.37 km
# MJD 59492.000000 (2021 Oct  5  0:00)
Unk_Cislunar
1 99999U 00000    21277.99919926 +002MK5B9 -002ILDNJ -0028CFPXH 13520
2 99999                          +0006SNM6 +0003XD8A +0000909C     08

# Worst residual: 0.46 km
# MJD 59493.000000 (2021 Oct  6  0:00)
Unk_Cislunar
1 99999U 00000    21278.99919926 +0040JHDA -001EFUB1 -001ZZ4U7H 13521
2 99999                          +0004QA6P +00056WAH +0001LJO3     02

# Worst residual: 0.55 km
# MJD 59494.000000 (2021 Oct  7  0:00)
Unk_Cislunar
1 99999U 00000    21279.99919926 +004W7Y26 -0003FDZ1 -001I61XUH 13525
2 99999                          +0002MIMY +0005KLAS +0002G528     01

# Worst residual: 0.57 km
# MJD 59495.000000 (2021 Oct  8  0:00)
Unk_Cislunar
1 99999U 00000    21280.99919926 +005AJ073 +001876ZY -000USVWHH 13522
2 99999                          +0000Q9YW +0005DLO3 +0002WJM2     08

# Worst residual: 0.51 km
# MJD 59496.000000 (2021 Oct  9  0:00)
Unk_Cislunar
1 99999U 00000    21281.99919926 +0059MOZM +002GGUID -0004TMVRH 13526
2 99999                          -0000W2OX +0004TL7Q +00032GBQ     06

# Worst residual: 0.46 km
# MJD 59497.000000 (2021 Oct 10  0:00)
Unk_Cislunar
1 99999U 00000    21282.99919926 +004VX6KC +003IUV3R +000LLAY1H 13523
2 99999                          -00028KJ5 +000416Y5 +00030JA0     02
Avg worst resid: 97.90 km
Worst residual in entire run: 2386.18 km on MJD 59469.0
       1     3     10    30    100   300   1K    3K    10K   km
    11     9     5     1     1     2     0     1     0     0
